NORAD_CAT_ID,OBJECT_NAME,OBJECT_TYPE,EPOCH,MEAN_MOTION,ECCENTRICITY,INCLINATION,RA_OF_ASC_NODE,ARG_OF_PERICENTER,MEAN_ANOMALY,BSTAR,MEAN_MOTION_DOT,MEAN_MOTION_DDOT,TLE_LINE0,TLE_LINE1,TLE_LINE2,SEMIMAJOR_AXIS,PERIOD,APOGEE,PERIGEE,DECAYED
50207.0,STARLINK-3262,PAYLOAD,2022-01-18 14:00:01,15.73213674,8.57e-05,53.2164,211.8372,84.18299999999998,73.6876,-3.6624e-05,-5.758e-05,0.0,0 STARLINK-3262,1 50207U 21125BD  22018.58334491 -.00005758  00000-0 -36624-4 0  9997,2 50207  53.2164 211.8372 0000857  84.1830  73.6876 15.73213674  6186,6727.856,91.532,350.298,349.145,0.0
50207.0,STARLINK-3262,PAYLOAD,2022-01-18 22:00:00,15.73190121,9.13e-05,53.2166,210.1898,61.8515,184.9673,0.00051746,0.000726,0.0,0 STARLINK-3262,1 50207U 21125BD  22018.91667824  .00072600  00000-0  51746-3 0  9992,2 50207  53.2166 210.1898 0000913  61.8515 184.9673 15.73190121  3693,6727.9230000000025,91.534,350.403,349.1740000000001,0.0
50207.0,STARLINK-3262,PAYLOAD,2022-01-19 06:00:02,15.732621,8.950000000000001e-05,53.2167,208.5384,70.6715,265.1612,-0.00060407,-0.00084768,0.0,0 STARLINK-3262,1 50207U 21125BD  22019.25002315 -.00084768  00000-0 -60407-3 0  9992,2 50207  53.2167 208.5384 0000895  70.6715 265.1612 15.73262100  6284,6727.718000000003,91.53,350.185,348.981,0.0
50207.0,STARLINK-3262,PAYLOAD,2022-01-19 14:00:01,15.73240632,0.0001021,53.2168,206.8888,73.4401,351.2882,-5.7488e-05,-8.693e-05,0.0,0 STARLINK-3262,1 50207U 21125BD  22019.58334491 -.00008693  00000-0 -57488-4 0  9990,2 50207  53.2168 206.8888 0001021  73.4401 351.2882 15.73240632  6349,6727.779,91.531,350.331,348.957,0.0
50207.0,STARLINK-3262,PAYLOAD,2022-01-19 22:00:00,15.73184479,0.000101,53.2165,205.2411,54.9873,98.7292,0.00038195,0.00053289,0.0,0 STARLINK-3262,1 50207U 21125BD  22019.91667824  .00053289  00000-0  38195-3 0  9998,2 50207  53.2165 205.2411 0001010  54.9873  98.7292 15.73184479  3695,6727.939,91.534,350.4840000000001,349.125,0.0
50207.0,STARLINK-3262,PAYLOAD,2022-01-20 06:00:00,15.73225482,9.76e-05,53.2163,203.5899,66.2738,176.3536,-0.00059077,-0.00082805,0.0,0 STARLINK-3262,1 50207U 21125BD  22020.25001157 -.00082805  00000-0 -59077-3 0  9998,2 50207  53.2163 203.5899 0000976  66.2738 176.3536 15.73225482  6440,6727.823,91.532,350.344,349.031,0.0
50207.0,STARLINK-3262,PAYLOAD,2022-01-20 14:00:01,15.73191547,0.0001187,53.2166,201.9404,74.6996,256.8356,-0.00069754,-0.00097353,0.0,0 STARLINK-3262,1 50207U 21125BD  22020.58334491 -.00097353  00000-0 -69754-3 0  9991,2 50207  53.2166 201.9404 0001187  74.6996 256.8356 15.73191547  3716,6727.919,91.534,350.583,348.986,0.0
50207.0,STARLINK-3262,PAYLOAD,2022-01-20 22:00:00,15.73094752,0.0001385999999999,53.2169,200.293,64.0535,356.3672,0.0005891,0.00082498,0.0,0 STARLINK-3262,1 50207U 21125BD  22020.91667824  .00082498  00000-0  58910-3 0  9991,2 50207  53.2169 200.2930 0001386  64.0535 356.3672 15.73094752  6550,6728.195,91.539,350.99300000000005,349.12800000000016,0.0
50207.0,STARLINK-3262,PAYLOAD,2022-01-21 14:00:01,15.73173842,0.0001379,53.2172,196.9927,70.2116,167.89700000000005,2.2556e-05,2.543e-05,0.0,0 STARLINK-3262,1 50207U 21125BD  22021.58334491  .00002543  00000-0  22556-4 0  9997,2 50207  53.2172 196.9927 0001379  70.2116 167.8970 15.73173842  6652,6727.97,91.535,350.76300000000015,348.907,0.0
50207.0,STARLINK-3262,PAYLOAD,2022-01-21 22:00:00,15.73160215,0.0001504,53.2168,195.345,59.3269,267.6927,0.00053553,0.00075084,0.0,0 STARLINK-3262,1 50207U 21125BD  22021.91667824  .00075084  00000-0  53553-3 0  9993,2 50207  53.2168 195.3450 0001504  59.3269 267.6927 15.73160215  3690,6728.009,91.535,350.885,348.862,0.0
50207.0,STARLINK-3262,PAYLOAD,2022-01-22 06:00:00,15.73193476,0.000131,53.2168,193.6936,68.0583,347.8781,0.00034174,0.00047599,0.0,0 STARLINK-3262,1 50207U 21125BD  22022.25001157  .00047599  00000-0  34174-3 0  9990,2 50207  53.2168 193.6936 0001310  68.0583 347.8781 15.73193476  6766,6727.9140000000025,91.534,350.66,348.897,0.0
50207.0,STARLINK-3262,PAYLOAD,2022-01-22 14:00:01,15.73250653,0.0001373,53.2171,192.0446,67.2173,77.6602,0.00010903,0.00014741,0.0,0 STARLINK-3262,1 50207U 21125BD  22022.58334491  .00014741  00000-0  10903-3 0  9993,2 50207  53.2171 192.0446 0001373  67.2173  77.6602 15.73250653  3661,6727.751,91.53,350.539,348.69199999999995,0.0
50207.0,STARLINK-3262,PAYLOAD,2022-01-22 22:00:00,15.73238699,0.0001415,53.2172,190.3966,54.6783,179.1986,0.00064338,0.00090806,0.0,0 STARLINK-3262,1 50207U 21125BD  22022.91667824  .00090806  00000-0  64338-3 0  9996,2 50207  53.2172 190.3966 0001415  54.6783 179.1986 15.73238699  3685,6727.785,91.531,350.602,348.6980000000001,0.0
50207.0,STARLINK-3262,PAYLOAD,2022-01-23 14:00:01,15.73253838,0.000137,53.2175,187.096,58.8208,353.0675,-0.00053303,-0.00074936,0.0,0 STARLINK-3262,1 50207U 21125BD  22023.58334491 -.00074936  00000-0 -53303-3 0  9999,2 50207  53.2175 187.0960 0001370  58.8208 353.0675 15.73253838  6978,6727.7419999999975,91.53,350.528,348.685,0.0
50207.0,STARLINK-3262,PAYLOAD,2022-01-23 22:00:00,15.73207182,0.0001476,53.2169,185.4479,49.7922,91.0694,-0.00010832,-0.00015798,0.0,0 STARLINK-3262,1 50207U 21125BD  22023.91667824 -.00015798  00000-0 -10832-3 0  9996,2 50207  53.2169 185.4479 0001476  49.7922  91.0694 15.73207182  3683,6727.875,91.533,350.733,348.747,0.0
50207.0,STARLINK-3262,PAYLOAD,2022-01-24 06:00:02,15.73232174,0.0001302,53.2168,183.7964,57.4734,172.3869,-0.00024555,-0.00034985,0.0,0 STARLINK-3262,1 50207U 21125BD  22024.25002315 -.00034985  00000-0 -24555-3 0  9998,2 50207  53.2168 183.7964 0001302  57.4734 172.3869 15.73232174  7070,6727.803000000001,91.531,350.5440000000001,348.792,0.0
50207.0,STARLINK-3262,PAYLOAD,2022-01-24 14:00:01,15.73209468,0.0001303,53.217,182.1478,54.959,263.7643,-5.5837e-05,-8.452e-05,0.0,0 STARLINK-3262,1 50207U 21125BD  22024.58334491 -.00008452  00000-0 -55837-4 0  9995,2 50207  53.2170 182.1478 0001303  54.9590 263.7643 15.73209468  3698,6727.868,91.533,350.61,348.857,0.0
50207.0,STARLINK-3262,PAYLOAD,2022-01-24 22:00:00,15.73207978,0.0001530999999999,53.2169,180.4996,47.646,0.0227,-0.00019,-0.00027209,0.0,0 STARLINK-3262,1 50207U 21125BD  22024.91667824 -.00027209  00000-0 -19000-3 0  9993,2 50207  53.2169 180.4996 0001531  47.6460   0.0227 15.73207978  3694,6727.871999999999,91.533,350.767,348.707,0.0
50207.0,STARLINK-3262,PAYLOAD,2022-01-25 14:00:01,15.73215749,0.0001649,53.2172,177.1996,55.3536,170.1485,1.3504e-05,1.276e-05,0.0,0 STARLINK-3262,1 50207U 21125BD  22025.58334491  .00001276  00000-0  13504-4 0  9996,2 50207  53.2172 177.1996 0001649  55.3536 170.1485 15.73215749  3679,6727.85,91.532,350.825,348.606,0.0
50207.0,STARLINK-3262,PAYLOAD,2022-01-25 22:00:00,15.73233404,0.0001693,53.2165,175.5511,46.2882,268.1753,0.00025349,0.00035156,0.0,0 STARLINK-3262,1 50207U 21125BD  22025.91667824  .00035156  00000-0  25349-3 0  9995,2 50207  53.2165 175.5511 0001693  46.2882 268.1753 15.73233404  3717,6727.8,91.531,350.80400000000014,348.526,0.0
50207.0,STARLINK-3262,PAYLOAD,2022-01-26 06:00:00,15.73219264,0.0001437,53.2164,173.8994,53.0488,350.4221,0.00012098,0.00016406,0.0,0 STARLINK-3262,1 50207U 21125BD  22026.25001157  .00016406  00000-0  12098-3 0  9998,2 50207  53.2164 173.8994 0001437  53.0488 350.4221 15.73219264  7397,6727.84,91.532,350.672,348.73800000000006,0.0
50207.0,STARLINK-3262,PAYLOAD,2022-01-26 14:00:01,15.73223447,0.0001595999999999,53.2166,172.2511,50.1531,82.2756,-0.00037752,-0.00053323,0.0,0 STARLINK-3262,1 50207U 21125BD  22026.58334491 -.00053323  00000-0 -37752-3 0  9999,2 50207  53.2166 172.2511 0001596  50.1531  82.2756 15.73223447  3667,6727.828,91.532,350.767,348.62,0.0
50207.0,STARLINK-3262,PAYLOAD,2022-01-26 21:03:48,15.73214117,0.0002119,53.2171,170.7935,49.4428,310.6776,1.0083e-05,7.95e-06,0.0,0 STARLINK-3262,1 50207U 21125BD  22026.87764224  .00000795  00000-0  10083-4 0  9994,2 50207  53.2171 170.7935 0002119  49.4428 310.6776 15.73214117  7493,6727.855,91.532,351.146,348.2940000000001,0.0
50207.0,STARLINK-3262,PAYLOAD,2022-01-26 22:00:00,15.73220494,0.0001648,53.2164,170.6025,44.4208,176.9329,-0.00025209,-0.00035881,0.0,0 STARLINK-3262,1 50207U 21125BD  22026.91667824 -.00035881  00000-0 -25209-3 0  9998,2 50207  53.2164 170.6025 0001648  44.4208 176.9329 15.73220494  7493,6727.837,91.532,350.81,348.593,0.0
50207.0,STARLINK-3262,PAYLOAD,2022-01-27 04:00:00,15.73213001,0.0001786,53.2176,169.3471,60.5186,137.2525,-8.638e-05,-0.00012733,0.0,0 STARLINK-3262,1 50207U 21125BD  22027.16667824 -.00012733  00000-0 -86380-4 0  9995,2 50207  53.2176 169.3471 0001786  60.5186 137.2525 15.73213001  7532,6727.858,91.532,350.925,348.522,0.0
50207.0,STARLINK-3262,PAYLOAD,2022-01-27 13:50:06,15.73187878,0.0001598,53.2175,167.3359,58.9426,301.1751,-4.0736e-05,-6.330000000000001e-05,0.0,0 STARLINK-3262,1 50207U 21125BD  22027.57646242 -.00006330  00000-0 -40736-4 0  9992,2 50207  53.2175 167.3359 0001598  58.9426 301.1751 15.73187878  7606,6727.93,91.534,350.87,348.72,0.0
50207.0,STARLINK-3262,PAYLOAD,2022-01-27 19:56:01,15.73204768,0.0001789,53.2174,166.0785,47.0615,313.0555,5.7753e-06,1.9e-06,0.0,0 STARLINK-3262,1 50207U 21125BD  22027.83057059  .00000190  00000-0  57753-5 0  9997,2 50207  53.2174 166.0785 0001789  47.0615 313.0555 15.73204768  7641,6727.882,91.533,350.95,348.543,0.0
50207.0,STARLINK-3262,PAYLOAD,2022-01-27 22:00:00,15.73210394,0.0001756,53.2163,165.6539,38.6921,89.3433,0.00029844,0.0004149,0.0,0 STARLINK-3262,1 50207U 21125BD  22027.91667824  .00041490  00000-0  29844-3 0  9999,2 50207  53.2163 165.6539 0001756  38.6921  89.3433 15.73210394  7652,6727.866,91.533,350.912,348.5490000000001,0.0
50207.0,STARLINK-3262,PAYLOAD,2022-01-28 10:00:00,15.73218663,0.0001431999999999,53.2167,163.178,41.6726,39.8033,-0.00010877,-0.00015869,0.0,0 STARLINK-3262,1 50207U 21125BD  22028.41667824 -.00015869  00000-0 -10877-3 0  9994,2 50207  53.2167 163.1780 0001432  41.6726  39.8033 15.73218663  7737,6727.842,91.532,350.67,348.744,0.0
